{"type": "FeatureCollection", "features": [ {"type": "Feature", "properties": {"norad_id": 66960, "name": "STARLINK-35879", "group": "last-30-days", "lat": 42.908880161842994, "lon": -158.38430302739295, "alt_km": 338.8337540853554, "timestamp": "2025-12-22T11:33:19.157007+00:00", "meta": {"OBJECT_NAME": "STARLINK-35879", "OBJECT_ID": "2025-288B", "EPOCH": "2025-12-22T04:00:01.998720", "MEAN_MOTION": 15.7568496, "ECCENTRICITY": 0.0001847, "INCLINATION": 43.0007, "RA_OF_ASC_NODE": 109.4911, "ARG_OF_PERICENTER": 272.2665, "MEAN_ANOMALY": 193.2366, "EPHEMERIS_TYPE": 0, "CLASSIFICATION_TYPE": "U", "NORAD_CAT_ID": 66960, "ELEMENT_SET_NO": 999, "REV_AT_EPOCH": 334, "BSTAR": -0.0058735, "MEAN_MOTION_DOT": -0.00841388, "MEAN_MOTION_DDOT": 0}, "tle": {"line1": "1 66960U 25288B   25356.16668980 -.00841388  00000+0 -58735-2 0  9990", "line2": "2 66960  43.0007 109.4911 0001847 272.2665 193.2366 15.75684960  3349"}}, "geometry": {"type": "Point", "coordinates": [-158.38430302739295, 42.908880161842994]}}, {"type": "Feature", "properties": {"norad_id": 66961, "name": "STARLINK-35761", "group": "last-30-days", "lat": 42.78683828837903, "lon": -155.77605947632156, "alt_km": 338.87202496261125, "timestamp": "2025-12-22T11:33:19.157017+00:00", "meta": {"OBJECT_NAME": "STARLINK-35761", "OBJECT_ID": "2025-288C", "EPOCH": "2025-12-22T04:00:01.998720", "MEAN_MOTION": 15.75638322, "ECCENTRICITY": 0.0001841, "INCLINATION": 43.0005, "RA_OF_ASC_NODE": 109.4864, "ARG_OF_PERICENTER": 269.8802, "MEAN_ANOMALY": 197.574, "EPHEMERIS_TYPE": 0, "CLASSIFICATION_TYPE": "U", "NORAD_CAT_ID": 66961, "ELEMENT_SET_NO": 999, "REV_AT_EPOCH": 334, "BSTAR": -0.005518, "MEAN_MOTION_DOT": -0.00793395, "MEAN_MOTION_DDOT": 0}, "tle": {"line1": "1 66961U 25288C   25356.16668980 -.00793395  00000+0 -55180-2 0  9996", "line2": "2 66961  43.0005 109.4864 0001841 269.8802 197.5740 15.75638322  3348"}}, "geometry": {"type": "Point", "coordinates": [-155.77605947632156, 42.78683828837903]}}, {"type": "Feature", "properties": {"norad_id": 66962, "name": "STARLINK-35874", "group": "last-30-days", "lat": 42.60624007134525, "lon": -153.18434791084644, "alt_km": 338.9992261687985, "timestamp": "2025-12-22T11:33:19.157027+00:00", "meta": {"OBJECT_NAME": "STARLINK-35874", "OBJECT_ID": "2025-288D", "EPOCH": "2025-12-22T04:00:01.998720", "MEAN_MOTION": 15.7544761, "ECCENTRICITY": 0.0001842, "INCLINATION": 43.0006, "RA_OF_ASC_NODE": 109.481, "ARG_OF_PERICENTER": 279.4938, "MEAN_ANOMALY": 190.0052, "EPHEMERIS_TYPE": 0, "CLASSIFICATION_TYPE": "U", "NORAD_CAT_ID": 66962, "ELEMENT_SET_NO": 999, "REV_AT_EPOCH": 334, "BSTAR": -0.0040573, "MEAN_MOTION_DOT": -0.00592473, "MEAN_MOTION_DDOT": 0}, "tle": {"line1": "1 66962U 25288D   25356.16668980 -.00592473  00000+0 -40573-2 0  9991", "line2": "2 66962  43.0006 109.4810 0001842 279.4938 190.0052 15.75447610  3341"}}, "geometry": {"type": "Point", "coordinates": [-153.18434791084644, 42.60624007134525]}}, {"type": "Feature", "properties": {"norad_id": 66963, "name": "STARLINK-36133", "group": "last-30-days", "lat": 42.366770621017004, "lon": -150.6046673822992, "alt_km": 339.0551863536275, "timestamp": "2025-12-22T11:33:19.157037+00:00", "meta": {"OBJECT_NAME": "STARLINK-36133", "OBJECT_ID": "2025-288E", "EPOCH": "2025-12-22T04:00:01.998720", "MEAN_MOTION": 15.75393547, "ECCENTRICITY": 0.0001877, "INCLINATION": 43.0006, "RA_OF_ASC_NODE": 109.4764, "ARG_OF_PERICENTER": 271.9007, "MEAN_ANOMALY": 199.5514, "EPHEMERIS_TYPE": 0, "CLASSIFICATION_TYPE": "U", "NORAD_CAT_ID": 66963, "ELEMENT_SET_NO": 999, "REV_AT_EPOCH": 334, "BSTAR": -0.0035225, "MEAN_MOTION_DOT": -0.00517727, "MEAN_MOTION_DDOT": 0}, "tle": {"line1": "1 66963U 25288E   25356.16668980 -.00517727  00000+0 -35225-2 0  9999", "line2": "2 66963  43.0006 109.4764 0001877 271.9007 199.5514 15.75393547  3348"}}, "geometry": {"type": "Point", "coordinates": [-150.6046673822992, 42.366770621017004]}}, {"type": "Feature", "properties": {"norad_id": 66964, "name": "STARLINK-36104", "group": "last-30-days", "lat": 42.07307270187753, "lon": -148.07465608132648, "alt_km": 339.05000889819985, "timestamp": "2025-12-22T11:33:19.157049+00:00", "meta": {"OBJECT_NAME": "STARLINK-36104", "OBJECT_ID": "2025-288F", "EPOCH": "2025-12-22T04:00:01.998720", "MEAN_MOTION": 15.75314933, "ECCENTRICITY": 0.0001748, "INCLINATION": 43.0005, "RA_OF_ASC_NODE": 109.4709, "ARG_OF_PERICENTER": 266.0552, "MEAN_ANOMALY": 207.3561, "EPHEMERIS_TYPE": 0, "CLASSIFICATION_TYPE": "U", "NORAD_CAT_ID": 66964, "ELEMENT_SET_NO": 999, "REV_AT_EPOCH": 334, "BSTAR": -0.0029798, "MEAN_MOTION_DOT": -0.00440444, "MEAN_MOTION_DDOT": 0}, "tle": {"line1": "1 66964U 25288F   25356.16668980 -.00440444  00000+0 -29798-2 0  9999", "line2": "2 66964  43.0005 109.4709 0001748 266.0552 207.3561 15.75314933  3346"}}, "geometry": {"type": "Point", "coordinates": [-148.07465608132648, 42.07307270187753]}}, {"type": "Feature", "properties": {"norad_id": 66965, "name": "STARLINK-36067", "group": "last-30-days", "lat": 41.7201736233202, "lon": -145.5409900793468, "alt_km": 338.96678322368643, "timestamp": "2025-12-22T11:33:19.157059+00:00", "meta": {"OBJECT_NAME": "STARLINK-36067", "OBJECT_ID": "2025-288G", "EPOCH": "2025-12-22T04:00:01.998720", "MEAN_MOTION": 15.75254591, "ECCENTRICITY": 0.0001542, "INCLINATION": 43.0007, "RA_OF_ASC_NODE": 109.4665, "ARG_OF_PERICENTER": 272.3332, "MEAN_ANOMALY": 203.0283, "EPHEMERIS_TYPE": 0, "CLASSIFICATION_TYPE": "U", "NORAD_CAT_ID": 66965, "ELEMENT_SET_NO": 999, "REV_AT_EPOCH": 334, "BSTAR": -0.002342, "MEAN_MOTION_DOT": -0.00349047, "MEAN_MOTION_DDOT": 0}, "tle": {"line1": "1 66965U 25288G   25356.16668980 -.00349047  00000+0 -23420-2 0  9993", "line2": "2 66965  43.0007 109.4665 0001542 272.3332 203.0283 15.75254591  3345"}}, "geometry": {"type": "Point", "coordinates": [-145.5409900793468, 41.7201736233202]}}, {"type": "Feature", "properties": {"norad_id": 66966, "name": "STARLINK-36139", "group": "last-30-days", "lat": 41.31576600386388, "lon": -143.06020480686905, "alt_km": 339.3959475814636, "timestamp": "2025-12-22T11:33:19.157071+00:00", "meta": {"OBJECT_NAME": "STARLINK-36139", "OBJECT_ID": "2025-288H", "EPOCH": "2025-12-22T04:00:01.998720", "MEAN_MOTION": 15.75133973, "ECCENTRICITY": 0.0002198, "INCLINATION": 43.0007, "RA_OF_ASC_NODE": 109.4613, "ARG_OF_PERICENTER": 263.735, "MEAN_ANOMALY": 213.605, "EPHEMERIS_TYPE": 0, "CLASSIFICATION_TYPE": "U", "NORAD_CAT_ID": 66966, "ELEMENT_SET_NO": 999, "REV_AT_EPOCH": 334, "BSTAR": -0.0011491, "MEAN_MOTION_DOT": -0.00174146, "MEAN_MOTION_DDOT": 0}, "tle": {"line1": "1 66966U 25288H   25356.16668980 -.00174146  00000+0 -11491-2 0  9995", "line2": "2 66966  43.0007 109.4613 0002198 263.7350 213.6050 15.75133973  3340"}}, "geometry": {"type": "Point", "coordinates": [-143.06020480686905, 41.31576600386388]}}, {"type": "Feature", "properties": {"norad_id": 66967, "name": "STARLINK-36136", "group": "last-30-days", "lat": 40.85216782864779, "lon": -140.57956390560483, "alt_km": 339.3705855563285, "timestamp": "2025-12-22T11:33:19.157082+00:00", "meta": {"OBJECT_NAME": "STARLINK-36136", "OBJECT_ID": "2025-288J", "EPOCH": "2025-12-22T04:00:01.998720", "MEAN_MOTION": 15.75105552, "ECCENTRICITY": 0.0002156, "INCLINATION": 43.0007, "RA_OF_ASC_NODE": 109.4565, "ARG_OF_PERICENTER": 263.4823, "MEAN_ANOMALY": 215.7929, "EPHEMERIS_TYPE": 0, "CLASSIFICATION_TYPE": "U", "NORAD_CAT_ID": 66967, "ELEMENT_SET_NO": 999, "REV_AT_EPOCH": 334, "BSTAR": -0.00069601, "MEAN_MOTION_DOT": -0.00106373, "MEAN_MOTION_DDOT": 0}, "tle": {"line1": "1 66967U 25288J   25356.16668980 -.00106373  00000+0 -69601-3 0  9990", "line2": "2 66967  43.0007 109.4565 0002156 263.4823 215.7929 15.75105552  3343"}}, "geometry": {"type": "Point", "coordinates": [-140.57956390560483, 40.85216782864779]}}, {"type": "Feature", "properties": {"norad_id": 66968, "name": "STARLINK-36152", "group": "last-30-days", "lat": 40.339511973615664, "lon": -138.15173359570247, "alt_km": 339.23579757669995, "timestamp": "2025-12-22T11:33:19.157093+00:00", "meta": {"OBJECT_NAME": "STARLINK-36152", "OBJECT_ID": "2025-288K", "EPOCH": "2025-12-22T04:00:01.998720", "MEAN_MOTION": 15.75053192, "ECCENTRICITY": 0.0001735, "INCLINATION": 43.0006, "RA_OF_ASC_NODE": 109.4515, "ARG_OF_PERICENTER": 267.5008, "MEAN_ANOMALY": 213.7245, "EPHEMERIS_TYPE": 0, "CLASSIFICATION_TYPE": "U", "NORAD_CAT_ID": 66968, "ELEMENT_SET_NO": 999, "REV_AT_EPOCH": 334, "BSTAR": -0.00030911, "MEAN_MOTION_DOT": -0.00047723, "MEAN_MOTION_DDOT": 0}, "tle": {"line1": "1 66968U 25288K   25356.16668980 -.00047723  00000+0 -30911-3 0  9996", "line2": "2 66968  43.0006 109.4515 0001735 267.5008 213.7245 15.75053192  3341"}}, "geometry": {"type": "Point", "coordinates": [-138.15173359570247, 40.339511973615664]}}, {"type": "Feature", "properties": {"norad_id": 66969, "name": "STARLINK-36149", "group": "last-30-days", "lat": 37.05959649308387, "lon": -126.61872647259428, "alt_km": 339.91626969275876, "timestamp": "2025-12-22T11:33:19.157102+00:00", "meta": {"OBJECT_NAME": "STARLINK-36149", "OBJECT_ID": "2025-288L", "EPOCH": "2025-12-22T04:00:01.998720", "MEAN_MOTION": 15.74994423, "ECCENTRICITY": 0.0002019, "INCLINATION": 43.0007, "RA_OF_ASC_NODE": 109.4274, "ARG_OF_PERICENTER": 282.0743, "MEAN_ANOMALY": 208.7518, "EPHEMERIS_TYPE": 0, "CLASSIFICATION_TYPE": "U", "NORAD_CAT_ID": 66969, "ELEMENT_SET_NO": 999, "REV_AT_EPOCH": 334, "BSTAR": 0.00043434, "MEAN_MOTION_DOT": 0.00066641, "MEAN_MOTION_DDOT": 0}, "tle": {"line1": "1 66969U 25288L   25356.16668980  .00066641  00000+0  43434-3 0  9999", "line2": "2 66969  43.0007 109.4274 0002019 282.0743 208.7518 15.74994423  3346"}}, "geometry": {"type": "Point", "coordinates": [-126.61872647259428, 37.05959649308387]}}]}